GLOBALSTAR M035         
1 25851U 99037A   25279.09467774 -.00000019  00000+0  16777-2 0  9998
2 25851  51.9928 167.6314 0013409 157.3488 348.4984 11.04539983108516
GLOBALSTAR M032         
1 25852U 99037B   25279.45048770 -.00000076  00000+0 -30053-3 0  9998
2 25852  51.9990 344.3619 0012187 354.9440   5.1235 11.19063111147243
GLOBALSTAR M051         
1 25853U 99037C   25279.28324111 -.00000075  00000+0 -68750-4 0  9991
2 25853  51.9769 132.8856 0001434  69.2199 290.8765 11.42205245145084
GLOBALSTAR M030         
1 25854U 99037D   25279.45362418 -.00000080  00000+0 -11638-3 0  9991
2 25854  51.9876 291.5068 0003007 247.0124 113.0376 11.55114953162907
GLOBALSTAR M048         
1 25872U 99041A   25279.45151950 -.00000085  00000+0 -39548-3 0  9998
2 25872  51.9365  71.8119 0013494  21.5610  11.4937 11.33859355137603
GLOBALSTAR M026         
1 25873U 99041B   25279.52924647 -.00000102  00000+0 -13943-2 0  9998
2 25873  52.0005 283.4488 0001823  93.6571  79.0951 11.06852498160812
GLOBALSTAR M043         
1 25874U 99041C   25279.46770928 -.00000068  00000+0  64061-5 0  9993
2 25874  51.9386 183.8554 0013428 137.6543  34.4122 11.25693969135401
GLOBALSTAR M028         
1 25875U 99041D   25279.32718431 -.00000061  00000+0  24962-3 0  9997
2 25875  51.9615 221.6640 0063239 313.3264  46.2336 12.50589391204083
